NORAD_CAT_ID,OBJECT_NAME,OBJECT_TYPE,EPOCH,MEAN_MOTION,ECCENTRICITY,INCLINATION,RA_OF_ASC_NODE,ARG_OF_PERICENTER,MEAN_ANOMALY,BSTAR,MEAN_MOTION_DOT,MEAN_MOTION_DDOT,TLE_LINE0,TLE_LINE1,TLE_LINE2,SEMIMAJOR_AXIS,PERIOD,APOGEE,PERIGEE,DECAYED
52612.0,STARLINK-4002,PAYLOAD,2023-10-02 19:57:48,15.0883988,0.0001722,53.2148,309.3604,90.5542,269.5648,0.00020194,2.927e-05,0.0,0 STARLINK-4002,1 52612U 22052Q   23275.83180639  .00002927  00000-0  20194-3 0  9993,2 52612  53.2148 309.3604 0001722  90.5542 269.5648 15.08839880 76679,6917.881,95.438,540.937,538.554,0.0
52612.0,STARLINK-4002,PAYLOAD,2023-10-03 08:40:53,15.0885162,0.0001754,53.2143,306.9811,89.8839,270.2355,0.00058889,9.1e-05,0.0,0 STARLINK-4002,1 52612U 22052Q   23276.36172488  .00009100  00000-0  58889-3 0  9997,2 52612  53.2143 306.9811 0001754  89.8839 270.2355 15.08851620 77123,6917.845,95.437,540.923,538.496,0.0
52612.0,STARLINK-4002,PAYLOAD,2023-10-04 02:10:07,15.08849582,0.0001789,53.2136,303.7097,88.2916,271.8281,0.00042001,6.404e-05,0.0,0 STARLINK-4002,1 52612U 22052Q   23277.09036672  .00006404  00000-0  42001-3 0  9995,2 52612  53.2136 303.7097 0001789  88.2916 271.8281 15.08849582 77234,6917.851,95.437,540.954,538.478,0.0
52612.0,STARLINK-4002,PAYLOAD,2023-10-04 08:31:40,15.08849957,0.0001875,53.2154,302.5206,87.9391,272.1816,0.00051231,7.877e-05,0.0,0 STARLINK-4002,1 52612U 22052Q   23277.35532634  .00007877  00000-0  51231-3 0  9993,2 52612  53.2154 302.5206 0001875  87.9391 272.1816 15.08849957 76909,6917.85,95.437,541.012,538.418,0.0
52612.0,STARLINK-4002,PAYLOAD,2023-10-05 02:00:54,15.08837611,0.0001891,53.2147,299.2495,93.084,267.0368,7.351e-05,8.82e-06,0.0,0 STARLINK-4002,1 52612U 22052Q   23278.08396907  .00000882  00000-0  73510-4 0  9999,2 52612  53.2147 299.2495 0001891  93.0840 267.0368 15.08837611 77380,6917.888,95.438,541.061,538.445,0.0
52612.0,STARLINK-4002,PAYLOAD,2023-10-05 08:22:27,15.08843453,0.0001812,53.2144,298.061,89.6602,270.4598,6.6889e-05,7.77e-06,0.0,0 STARLINK-4002,1 52612U 22052Q   23278.34892727  .00000777  00000-0  66889-4 0  9993,2 52612  53.2144 298.0610 0001812  89.6602 270.4598 15.08843453 77051,6917.87,95.437,540.988,538.481,0.0
52612.0,STARLINK-4002,PAYLOAD,2023-10-05 17:54:46,15.08839572,0.0001778,53.2142,296.2768,88.1273,271.9923,-5.1315e-06,-3.7e-06,0.0,0 STARLINK-4002,1 52612U 22052Q   23278.74636906 -.00000370  00000-0 -51315-5 0  9992,2 52612  53.2142 296.2768 0001778  88.1273 271.9923 15.08839572 77114,6917.882,95.438,540.977,538.517,0.0
52612.0,STARLINK-4002,PAYLOAD,2023-10-06 01:51:42,15.08832482,0.000178,53.2147,294.7902,91.8475,268.2721,2.7172e-05,1.44e-06,0.0,0 STARLINK-4002,1 52612U 22052Q   23279.07757355  .00000144  00000-0  27172-4 0  9991,2 52612  53.2147 294.7902 0001780  91.8475 268.2721 15.08832482 77534,6917.903,95.438,541.0,538.537,0.0
52612.0,STARLINK-4002,PAYLOAD,2023-10-06 08:13:14,15.08838419,0.000183,53.2166,293.602,95.1848,264.9353,8.8282e-05,1.117e-05,0.0,0 STARLINK-4002,1 52612U 22052Q   23279.34253194  .00001117  00000-0  88282-4 0  9993,2 52612  53.2166 293.6020 0001830  95.1848 264.9353 15.08838419 77205,6917.885,95.438,541.016,538.484,0.0
52612.0,STARLINK-4002,PAYLOAD,2023-10-07 08:04:01,15.08841006,0.0001571,53.2151,289.1393,88.3754,271.7418,0.00010104,1.32e-05,0.0,0 STARLINK-4002,1 52612U 22052Q   23280.33613282  .00001320  00000-0  10104-3 0  9995,2 52612  53.2151 289.1393 0001571  88.3754 271.7418 15.08841006 77725,6917.877,95.437,540.829,538.656,0.0
52612.0,STARLINK-4002,PAYLOAD,2023-10-07 17:36:20,15.0884205,0.0001598,53.2156,287.3554,90.8275,269.29,4.6057e-05,4.45e-06,0.0,0 STARLINK-4002,1 52612U 22052Q   23280.73357356  .00000445  00000-0  46057-4 0  9990,2 52612  53.2156 287.3554 0001598  90.8275 269.2900 15.08842050 77418,6917.874,95.437,540.845,538.634,0.0
52612.0,STARLINK-4002,PAYLOAD,2023-10-08 01:33:16,15.08832949,0.000159,53.2162,285.869,90.6036,269.5139,0.00010571,1.394e-05,0.0,0 STARLINK-4002,1 52612U 22052Q   23281.06477942  .00001394  00000-0  10571-3 0  9996,2 52612  53.2162 285.8690 0001590  90.6036 269.5139 15.08832949 77833,6917.902,95.438,540.867,538.667,0.0
52612.0,STARLINK-4002,PAYLOAD,2023-10-08 09:30:12,15.08845104,0.0001795,53.2168,284.3815,93.467,266.6527,0.00013936,1.931e-05,0.0,0 STARLINK-4002,1 52612U 22052Q   23281.39597229  .00001931  00000-0  13936-3 0  9998,2 52612  53.2168 284.3815 0001795  93.4670 266.6527 15.08845104 77885,6917.865,95.437,540.972,538.488,0.0
52612.0,STARLINK-4002,PAYLOAD,2023-10-09 01:24:03,15.08843062,0.0001769,53.2161,281.4069,88.5101,271.6094,6.5968e-05,7.62e-06,0.0,0 STARLINK-4002,1 52612U 22052Q   23282.05837566  .00000762  00000-0  65968-4 0  9997,2 52612  53.2161 281.4069 0001769  88.5101 271.6094 15.08843062 77989,6917.871,95.437,540.96,538.512,0.0
52612.0,STARLINK-4002,PAYLOAD,2023-10-09 07:45:35,15.08845139,0.0001629,53.2161,280.2174,95.5384,264.5794,9.2415e-05,1.183e-05,0.0,0 STARLINK-4002,1 52612U 22052Q   23282.32333248  .00001183  00000-0  92415-4 0  9990,2 52612  53.2161 280.2174 0001629  95.5384 264.5794 15.08845139 77658,6917.865,95.437,540.857,538.603,0.0
52612.0,STARLINK-4002,PAYLOAD,2023-10-10 06:00:59,15.08855959,0.0001571,53.2165,276.057,88.799,271.3182,-0.00013619,-2.456e-05,0.0,0 STARLINK-4002,1 52612U 22052Q   23283.25069132 -.00002456  00000-0 -13619-3 0  9995,2 52612  53.2165 276.0570 0001571  88.7990 271.3182 15.08855959 78163,6917.832,95.437,540.783,538.61,0.0
52612.0,STARLINK-4002,PAYLOAD,2023-10-10 17:08:41,15.08847215,0.0001759,53.2175,273.9755,86.3143,273.8051,5.8992e-06,-1.94e-06,0.0,0 STARLINK-4002,1 52612U 22052Q   23283.71437336 -.00000194  00000-0  58992-5 0  9992,2 52612  53.2175 273.9755 0001759  86.3143 273.8051 15.08847215 78233,6917.858,95.437,540.94,538.506,0.0
52612.0,STARLINK-4002,PAYLOAD,2023-10-11 02:41:01,15.08840564,0.0001499,53.2177,272.1908,96.8915,263.2248,1.743e-05,-1.1e-07,0.0,0 STARLINK-4002,1 52612U 22052Q   23284.11181818 -.00000011  00000-0  17430-4 0  9997,2 52612  53.2177 272.1908 0001499  96.8915 263.2248 15.08840564 78297,6917.879,95.438,540.781,538.707,0.0
52612.0,STARLINK-4002,PAYLOAD,2023-10-11 09:02:33,15.08842395,0.0001873,53.217,270.9974,107.4378,252.6819,6.7205e-05,7.82e-06,0.0,0 STARLINK-4002,1 52612U 22052Q   23284.37677589  .00000782  00000-0  67205-4 0  9999,2 52612  53.2170 270.9974 0001873 107.4378 252.6819 15.08842395 77960,6917.873,95.437,541.034,538.442,0.0
52612.0,STARLINK-4002,PAYLOAD,2023-10-12 04:07:11,15.0884137,0.0001762,53.2174,267.4272,110.7425,249.3756,-2.0771e-05,-6.19e-06,0.0,0 STARLINK-4002,1 52612U 22052Q   23285.17165939 -.00000619  00000-0 -20771-4 0  9997,2 52612  53.2174 267.4272 0001762 110.7425 249.3756 15.08841370 78453,6917.876,95.437,540.96,538.522,0.0
52612.0,STARLINK-4002,PAYLOAD,2023-10-12 05:42:34,15.08841478,0.0001593,53.2173,267.1343,102.7818,257.3352,6.1229e-05,6.87e-06,0.0,0 STARLINK-4002,1 52612U 22052Q   23285.23789766  .00000687  00000-0  61229-4 0  9990,2 52612  53.2173 267.1343 0001593 102.7818 257.3352 15.08841478 78097,6917.876,95.437,540.843,538.639,0.0
52612.0,STARLINK-4002,PAYLOAD,2023-10-13 05:33:21,15.0884869,0.0002309,53.2175,262.6773,93.9591,266.1665,-2.4795e-05,-6.83e-06,0.0,0 STARLINK-4002,1 52612U 22052Q   23286.23149829 -.00000683  00000-0 -24795-4 0  9996,2 52612  53.2175 262.6773 0002309  93.9591 266.1665 15.08848690 78617,6917.854,95.437,541.316,538.121,0.0
52612.0,STARLINK-4002,PAYLOAD,2023-10-13 08:44:07,15.08846037,0.0001495,53.2169,262.0795,104.0566,256.0592,0.00012906,1.767e-05,0.0,0 STARLINK-4002,1 52612U 22052Q   23286.36397444  .00001767  00000-0  12906-3 0  9990,2 52612  53.2169 262.0795 0001495 104.0566 256.0592 15.08846037 78260,6917.862,95.437,540.761,538.693,0.0
52612.0,STARLINK-4002,PAYLOAD,2023-10-13 15:05:40,15.08844374,0.0001417,53.216,260.8884,97.5379,262.5774,6.4191e-05,7.34e-06,0.0,0 STARLINK-4002,1 52612U 22052Q   23286.62893630  .00000734  00000-0  64191-4 0  9994,2 52612  53.2160 260.8884 0001417  97.5379 262.5774 15.08844374 78309,6917.867,95.437,540.712,538.752,0.0
52612.0,STARLINK-4002,PAYLOAD,2023-10-14 05:24:09,15.08837009,0.0001571,53.2178,258.2175,105.7964,254.3201,1.5863e-05,-3.6e-07,0.0,0 STARLINK-4002,1 52612U 22052Q   23287.22510611 -.00000036  00000-0  15863-4 0  9994,2 52612  53.2178 258.2175 0001571 105.7964 254.3201 15.08837009 78766,6917.89,95.438,540.841,538.668,0.0
52612.0,STARLINK-4002,PAYLOAD,2023-10-14 06:59:32,15.08840235,0.0001564,53.2179,257.9187,102.1326,257.9842,2.2802e-05,7.5e-07,0.0,0 STARLINK-4002,1 52612U 22052Q   23287.29134376  .00000075  00000-0  22802-4 0  9994,2 52612  53.2179 257.9187 0001564 102.1326 257.9842 15.08840235 78407,6917.88,95.438,540.827,538.663,0.0
52612.0,STARLINK-4002,PAYLOAD,2023-10-15 02:04:10,15.0883268,0.0001368,53.2168,254.3475,89.6338,270.4811,-6.4086e-05,-1.307e-05,0.0,0 STARLINK-4002,1 52612U 22052Q   23288.08623517 -.00001307  00000-0 -64086-4 0  9993,2 52612  53.2168 254.3475 0001368  89.6338 270.4811 15.08832680 78894,6917.903,95.438,540.714,538.821,0.0
52612.0,STARLINK-4002,PAYLOAD,2023-10-15 06:50:19,15.08844175,0.0001618,53.217,253.4554,93.5692,266.5485,3.7972e-05,3.16e-06,0.0,0 STARLINK-4002,1 52612U 22052Q   23288.28494612  .00000316  00000-0  37972-4 0  9998,2 52612  53.2170 253.4554 0001618  93.5692 266.5485 15.08844175 78929,6917.868,95.437,540.852,538.613,0.0
52612.0,STARLINK-4002,PAYLOAD,2023-10-15 14:47:14,15.08845781,0.0001649,53.2172,251.9681,88.118,272.0001,4.5631e-05,4.38e-06,0.0,0 STARLINK-4002,1 52612U 22052Q   23288.61614496  .00000438  00000-0  45631-4 0  9995,2 52612  53.2172 251.9681 0001649  88.1180 272.0001 15.08845781 78606,6917.863,95.437,540.868,538.587,0.0
52612.0,STARLINK-4002,PAYLOAD,2023-10-16 05:05:42,15.08845389,0.0001666,53.2172,249.2901,86.3648,273.7534,0.00019225,2.773e-05,0.0,0 STARLINK-4002,1 52612U 22052Q   23289.21230294  .00002773  00000-0  19225-3 0  9995,2 52612  53.2172 249.2901 0001666  86.3648 273.7534 15.08845389 78691,6917.864,95.437,540.881,538.576,0.0
